{
  "type": "FeatureCollection",
  "features": [
    {
      "type": "Feature",
      "properties": {
        "norad_id": 31287,
        "name": "FENGYUN 1C DEB",
        "group": "fengyun-1c-debris",
        "lat": -59.62007086001589,
        "lon": -140.77695556418504,
        "alt_km": 821.7288819135692,
        "timestamp": "2025-12-24T18:55:56.350096+00:00",
        "meta_object_name": "FENGYUN 1C DEB",
        "meta_object_id": "1999-025BNV",
        "meta_epoch": "2025-12-17T09:14:55.199040",
        "meta_mean_motion": 14.280549,
        "meta_eccentricity": 0.0027206,
        "meta_inclination": 99.41,
        "meta_ra_of_asc_node": 47.6846,
        "meta_arg_of_pericenter": 50.1324,
        "meta_mean_anomaly": 310.2241,
        "meta_ephemeris_type": 0,
        "meta_classification_type": "U",
        "meta_norad_cat_id": 31287,
        "meta_element_set_no": 999,
        "meta_rev_at_epoch": 96752,
        "meta_bstar": 0.0011667317,
        "meta_mean_motion_dot": 2.86e-05,
        "meta_mean_motion_ddot": 0,
        "tle_line1": "1 31287U 99025BNV 25351.38536110  .00002860  00000+0  11667-2 0  9997",
        "tle_line2": "2 31287  99.4100  47.6846 0027206  50.1324 310.2241 14.28054900967528"
      },
      "geometry": {
        "type": "Point",
        "coordinates": [
          -140.77695556418504,
          -59.62007086001589
        ]
      }
    },
    {
      "type": "Feature",
      "properties": {
        "norad_id": 31288,
        "name": "FENGYUN 1C DEB",
        "group": "fengyun-1c-debris",
        "lat": 78.79745602379118,
        "lon": 29.256646397811007,
        "alt_km": 584.1069583430217,
        "timestamp": "2025-12-24T18:55:56.350106+00:00",
        "meta_object_name": "FENGYUN 1C DEB",
        "meta_object_id": "1999-025BNW",
        "meta_epoch": "2025-12-23T22:19:04.066752",
        "meta_mean_motion": 14.96925922,
        "meta_eccentricity": 0.00230382,
        "meta_inclination": 98.7455,
        "meta_ra_of_asc_node": 157.2855,
        "meta_arg_of_pericenter": 264.885,
        "meta_mean_anomaly": 246.0255,
        "meta_ephemeris_type": 0,
        "meta_classification_type": "U",
        "meta_norad_cat_id": 31288,
        "meta_element_set_no": 999,
        "meta_rev_at_epoch": 97724,
        "meta_bstar": 0.0064654268,
        "meta_mean_motion_dot": 0.00075348,
        "meta_mean_motion_ddot": 0,
        "tle_line1": "1 31288U 99025BNW 25357.92990818  .00075348  00000+0  64654-2 0  9998",
        "tle_line2": "2 31288  98.7455 157.2855 0023038 264.8850 246.0255 14.96925922977246"
      },
      "geometry": {
        "type": "Point",
        "coordinates": [
          29.256646397811007,
          78.79745602379118
        ]
      }
    },
    {
      "type": "Feature",
      "properties": {
        "norad_id": 31293,
        "name": "FENGYUN 1C DEB",
        "group": "fengyun-1c-debris",
        "lat": 57.86008511229099,
        "lon": -7.462208595072882,
        "alt_km": 861.3227468307414,
        "timestamp": "2025-12-24T18:55:56.350119+00:00",
        "meta_object_name": "FENGYUN 1C DEB",
        "meta_object_id": "1999-025BPB",
        "meta_epoch": "2025-12-22T06:13:51.554208",
        "meta_mean_motion": 14.30816344,
        "meta_eccentricity": 0.01257922,
        "meta_inclination": 98.4224,
        "meta_ra_of_asc_node": 3.727,
        "meta_arg_of_pericenter": 216.5399,
        "meta_mean_anomaly": 142.7154,
        "meta_ephemeris_type": 0,
        "meta_classification_type": "U",
        "meta_norad_cat_id": 31293,
        "meta_element_set_no": 999,
        "meta_rev_at_epoch": 65380,
        "meta_bstar": 6.4145544e-05,
        "meta_mean_motion_dot": 1.39e-06,
        "meta_mean_motion_ddot": 0,
        "tle_line1": "1 31293U 99025BPB 25356.25962447  .00000139  00000+0  64146-4 0  9990",
        "tle_line2": "2 31293  98.4224   3.7270 0125792 216.5399 142.7154 14.30816344653809"
      },
      "geometry": {
        "type": "Point",
        "coordinates": [
          -7.462208595072882,
          57.86008511229099
        ]
      }
    },
    {
      "type": "Feature",
      "properties": {
        "norad_id": 31294,
        "name": "FENGYUN 1C DEB",
        "group": "fengyun-1c-debris",
        "lat": 8.468947700308144,
        "lon": 175.17893793038186,
        "alt_km": 893.359499182794,
        "timestamp": "2025-12-24T18:55:56.350129+00:00",
        "meta_object_name": "FENGYUN 1C DEB",
        "meta_object_id": "1999-025BPC",
        "meta_epoch": "2025-12-19T22:44:39.754176",
        "meta_mean_motion": 14.15326352,
        "meta_eccentricity": 0.0099306,
        "meta_inclination": 98.5431,
        "meta_ra_of_asc_node": 349.2579,
        "meta_arg_of_pericenter": 320.3267,
        "meta_mean_anomaly": 39.0671,
        "meta_ephemeris_type": 0,
        "meta_classification_type": "U",
        "meta_norad_cat_id": 31294,
        "meta_element_set_no": 999,
        "meta_rev_at_epoch": 96955,
        "meta_bstar": 0.00037135,
        "meta_mean_motion_dot": 7.16e-06,
        "meta_mean_motion_ddot": 0,
        "tle_line1": "1 31294U 99025BPC 25353.94768234  .00000716  00000+0  37135-3 0  9990",
        "tle_line2": "2 31294  98.5431 349.2579 0099306 320.3267  39.0671 14.15326352969552"
      },
      "geometry": {
        "type": "Point",
        "coordinates": [
          175.17893793038186,
          8.468947700308144
        ]
      }
    },
    {
      "type": "Feature",
      "properties": {
        "norad_id": 31295,
        "name": "FENGYUN 1C DEB",
        "group": "fengyun-1c-debris",
        "lat": 36.987778311409,
        "lon": 176.25560400991344,
        "alt_km": 958.3229010700725,
        "timestamp": "2025-12-24T18:55:56.350138+00:00",
        "meta_object_name": "FENGYUN 1C DEB",
        "meta_object_id": "1999-025BPD",
        "meta_epoch": "2025-12-23T23:50:25.757088",
        "meta_mean_motion": 13.96833909,
        "meta_eccentricity": 0.00772133,
        "meta_inclination": 98.3163,
        "meta_ra_of_asc_node": 181.8611,
        "meta_arg_of_pericenter": 219.2784,
        "meta_mean_anomaly": 140.2765,
        "meta_ephemeris_type": 0,
        "meta_classification_type": "U",
        "meta_norad_cat_id": 31295,
        "meta_element_set_no": 999,
        "meta_rev_at_epoch": 95660,
        "meta_bstar": 3.6821307e-05,
        "meta_mean_motion_dot": 1.4e-07,
        "meta_mean_motion_ddot": 0,
        "tle_line1": "1 31295U 99025BPD 25357.99335367  .00000014  00000+0  36821-4 0  9990",
        "tle_line2": "2 31295  98.3163 181.8611 0077213 219.2784 140.2765 13.96833909956603"
      },
      "geometry": {
        "type": "Point",
        "coordinates": [
          176.25560400991344,
          36.987778311409
        ]
      }
    },
    {
      "type": "Feature",
      "properties": {
        "norad_id": 31296,
        "name": "FENGYUN 1C DEB",
        "group": "fengyun-1c-debris",
        "lat": -26.833587073305257,
        "lon": 90.42068517560939,
        "alt_km": 648.6907759125152,
        "timestamp": "2025-12-24T18:55:56.350150+00:00",
        "meta_object_name": "FENGYUN 1C DEB",
        "meta_object_id": "1999-025BPE",
        "meta_epoch": "2025-12-24T00:02:59.895168",
        "meta_mean_motion": 14.71993157,
        "meta_eccentricity": 0.00199123,
        "meta_inclination": 99.0669,
        "meta_ra_of_asc_node": 274.178,
        "meta_arg_of_pericenter": 175.4225,
        "meta_mean_anomaly": 184.7165,
        "meta_ephemeris_type": 0,
        "meta_classification_type": "U",
        "meta_norad_cat_id": 31296,
        "meta_element_set_no": 999,
        "meta_rev_at_epoch": 97515,
        "meta_bstar": 0.0040970779,
        "meta_mean_motion_dot": 0.00025826,
        "meta_mean_motion_ddot": 0,
        "tle_line1": "1 31296U 99025BPE 25358.00208212  .00025826  00000+0  40971-2 0  9999",
        "tle_line2": "2 31296  99.0669 274.1780 0019912 175.4225 184.7165 14.71993157975155"
      },
      "geometry": {
        "type": "Point",
        "coordinates": [
          90.42068517560939,
          -26.833587073305257
        ]
      }
    },
    {
      "type": "Feature",
      "properties": {
        "norad_id": 31297,
        "name": "FENGYUN 1C DEB",
        "group": "fengyun-1c-debris",
        "lat": 46.35603105952195,
        "lon": 127.0582072358887,
        "alt_km": 621.2549159489081,
        "timestamp": "2025-12-24T18:55:56.350160+00:00",
        "meta_object_name": "FENGYUN 1C DEB",
        "meta_object_id": "1999-025BPF",
        "meta_epoch": "2025-12-23T03:57:46.176192",
        "meta_mean_motion": 14.57114914,
        "meta_eccentricity": 0.01396514,
        "meta_inclination": 98.9349,
        "meta_ra_of_asc_node": 134.8116,
        "meta_arg_of_pericenter": 91.3405,
        "meta_mean_anomaly": 84.3062,
        "meta_ephemeris_type": 0,
        "meta_classification_type": "U",
        "meta_norad_cat_id": 31297,
        "meta_element_set_no": 999,
        "meta_rev_at_epoch": 99467,
        "meta_bstar": 0.00029552128,
        "meta_mean_motion_dot": 1.462e-05,
        "meta_mean_motion_ddot": 0,
        "tle_line1": "1 31297U 99025BPF 25357.16511778  .00001462  00000+0  29552-3 0  9993",
        "tle_line2": "2 31297  98.9349 134.8116 0139651  91.3405  84.3062 14.57114914994672"
      },
      "geometry": {
        "type": "Point",
        "coordinates": [
          127.0582072358887,
          46.35603105952195
        ]
      }
    }
  ]
}